{
"type": "FeatureCollection",
"name": "mock_legacy_cadastral",
"crs": { "type": "name", "properties": { "name": "urn:ogc:def:crs:OGC:1.3:CRS84" } },
"features": [
{ "type": "Feature", "properties": { "khasra_no": "LEG-101", "owner": "Ram Kumar" }, "geometry": { "type": "Polygon", "coordinates": [ [ [ 77.7001, 28.9801 ], [ 77.7011, 28.9801 ], [ 77.7011, 28.9811 ], [ 77.7001, 28.9811 ], [ 77.7001, 28.9801 ] ] ] } },
{ "type": "Feature", "properties": { "khasra_no": "LEG-102", "owner": "Shyam Singh" }, "geometry": { "type": "Polygon", "coordinates": [ [ [ 77.699, 28.979 ], [ 77.698, 28.979 ], [ 77.699, 28.978 ], [ 77.698, 28.978 ], [ 77.699, 28.979 ] ] ] } }
]
}
