{
  "type": "FeatureCollection",
  "crs": {
    "type": "name",
    "properties": {
      "name": "EPSG:4326"
    }
  },
  "features": [
    {
      "type": "Feature",
      "geometry": {
        "type": "Polygon",
        "coordinates": [
          [
            [
              76.51466054109864,
              0.0013529127225462634
            ],
            [
              76.51627316986401,
              0.0013529157293145195
            ],
            [
              76.51627316677282,
              0.0025254426947051893
            ],
            [
              76.51466053800637,
              0.002525437082071108
            ],
            [
              76.51466054109864,
              0.0013529127225462634
            ]
          ]
        ]
      },
      "properties": {
        "structure_id": "STR-002",
        "class": "residential_house",
        "confidence": 0.91,
        "source": "synthetic_ground_truth_fixture",
        "verification_method": "fixture_not_model_output",
        "processing_crs": "EPSG:32644",
        "record_status": "synthetic",
        "status": "municipal_matched",
        "stage2_reason": "Spatially intersects municipal building record MUN-BLD-002.",
        "municipal_building_id": "MUN-BLD-002",
        "municipal_record": {
          "municipal_building_id": "MUN-BLD-002",
          "structure_ref": "STR-002",
          "building_status": "registered",
          "building_use": "residential",
          "source_department": "Urban Local Body / Municipal Corporation",
          "source_authority": "Synthetic Meerut Nagar Nigam",
          "record_status": "synthetic"
        }
      }
    },
    {
      "type": "Feature",
      "geometry": {
        "type": "Polygon",
        "coordinates": [
          [
            [
              76.51752743931925,
              0.001262723529359668
            ],
            [
              76.51887130168286,
              0.0012627258665438934
            ],
            [
              76.51887129903007,
              0.0023450623235693625
            ],
            [
              76.51752743666567,
              0.002345057983084369
            ],
            [
              76.51752743931925,
              0.001262723529359668
            ]
          ]
        ]
      },
      "properties": {
        "structure_id": "STR-003",
        "class": "building",
        "confidence": 0.96,
        "source": "synthetic_ground_truth_fixture",
        "verification_method": "fixture_not_model_output",
        "processing_crs": "EPSG:32644",
        "record_status": "synthetic",
        "status": "municipal_matched",
        "stage2_reason": "Spatially intersects municipal building record MUN-BLD-003.",
        "municipal_building_id": "MUN-BLD-003",
        "municipal_record": {
          "municipal_building_id": "MUN-BLD-003",
          "structure_ref": "STR-003",
          "building_status": "registered",
          "building_use": "residential",
          "source_department": "Urban Local Body / Municipal Corporation",
          "source_authority": "Synthetic Meerut Nagar Nigam",
          "record_status": "synthetic"
        }
      }
    },
    {
      "type": "Feature",
      "geometry": {
        "type": "Polygon",
        "coordinates": [
          [
            [
              76.52048393947047,
              0.001443118480281877
            ],
            [
              76.52209658116966,
              0.0014431216833706115
            ],
            [
              76.52209657761303,
              0.002705853156301088
            ],
            [
              76.52048393591258,
              0.0027058471505097066
            ],
            [
              76.52048393947047,
              0.001443118480281877
            ]
          ]
        ]
      },
      "properties": {
        "structure_id": "STR-004",
        "class": "building",
        "confidence": 0.93,
        "source": "synthetic_ground_truth_fixture",
        "verification_method": "fixture_not_model_output",
        "processing_crs": "EPSG:32644",
        "record_status": "synthetic",
        "status": "municipal_matched",
        "stage2_reason": "Spatially intersects municipal building record MUN-BLD-004.",
        "municipal_building_id": "MUN-BLD-004",
        "municipal_record": {
          "municipal_building_id": "MUN-BLD-004",
          "structure_ref": "STR-004",
          "building_status": "registered",
          "building_use": "mixed_use",
          "source_department": "Urban Local Body / Municipal Corporation",
          "source_authority": "Synthetic Meerut Nagar Nigam",
          "record_status": "synthetic"
        }
      }
    },
    {
      "type": "Feature",
      "geometry": {
        "type": "Polygon",
        "coordinates": [
          [
            [
              76.5231716781044,
              0.0011725381022297662
            ],
            [
              76.52478432576724,
              0.0011725407031902904
            ],
            [
              76.5247843223728,
              0.002525472283777711
            ],
            [
              76.52317167470875,
              0.002525466681708887
            ],
            [
              76.5231716781044,
              0.0011725381022297662
            ]
          ]
        ]
      },
      "properties": {
        "structure_id": "STR-005",
        "class": "residential_house",
        "confidence": 0.89,
        "source": "synthetic_ground_truth_fixture",
        "verification_method": "fixture_not_model_output",
        "processing_crs": "EPSG:32644",
        "record_status": "synthetic",
        "status": "municipal_matched",
        "stage2_reason": "Spatially intersects municipal building record MUN-BLD-005.",
        "municipal_building_id": "MUN-BLD-005",
        "municipal_record": {
          "municipal_building_id": "MUN-BLD-005",
          "structure_ref": "STR-005",
          "building_status": "registered",
          "building_use": "residential",
          "source_department": "Urban Local Body / Municipal Corporation",
          "source_authority": "Synthetic Meerut Nagar Nigam",
          "record_status": "synthetic"
        }
      }
    },
    {
      "type": "Feature",
      "geometry": {
        "type": "Polygon",
        "coordinates": [
          [
            [
              76.52603860944654,
              0.0013529339140572593
            ],
            [
              76.52774085546181,
              0.0013529370798498407
            ],
            [
              76.52774085173864,
              0.0027058741596799793
            ],
            [
              76.52603860572198,
              0.002705867828094812
            ],
            [
              76.52603860944654,
              0.0013529339140572593
            ]
          ]
        ]
      },
      "properties": {
        "structure_id": "STR-006",
        "class": "factory",
        "confidence": 0.92,
        "source": "synthetic_ground_truth_fixture",
        "verification_method": "fixture_not_model_output",
        "processing_crs": "EPSG:32644",
        "record_status": "synthetic",
        "status": "municipal_matched",
        "stage2_reason": "Spatially intersects municipal building record MUN-BLD-006.",
        "municipal_building_id": "MUN-BLD-006",
        "municipal_record": {
          "municipal_building_id": "MUN-BLD-006",
          "structure_ref": "STR-006",
          "building_status": "registered",
          "building_use": "industrial",
          "source_department": "Urban Local Body / Municipal Corporation",
          "source_authority": "Synthetic Meerut Nagar Nigam",
          "record_status": "synthetic"
        }
      }
    },
    {
      "type": "Feature",
      "geometry": {
        "type": "Polygon",
        "coordinates": [
          [
            [
              76.51349585440926,
              0.004509701834304115
            ],
            [
              76.51510848059036,
              0.004509711859446637
            ],
            [
              76.51510847104895,
              0.005862625417171395
            ],
            [
              76.51349584486444,
              0.005862612384486101
            ],
            [
              76.51349585440926,
              0.004509701834304115
            ]
          ]
        ]
      },
      "properties": {
        "structure_id": "STR-007",
        "class": "building",
        "confidence": 0.9,
        "source": "synthetic_ground_truth_fixture",
        "verification_method": "fixture_not_model_output",
        "processing_crs": "EPSG:32644",
        "record_status": "synthetic",
        "status": "municipal_matched",
        "stage2_reason": "Spatially intersects municipal building record MUN-BLD-007.",
        "municipal_building_id": "MUN-BLD-007",
        "municipal_record": {
          "municipal_building_id": "MUN-BLD-007",
          "structure_ref": "STR-007",
          "building_status": "registered",
          "building_use": "residential",
          "source_department": "Urban Local Body / Municipal Corporation",
          "source_authority": "Synthetic Meerut Nagar Nigam",
          "record_status": "synthetic"
        }
      }
    },
    {
      "type": "Feature",
      "geometry": {
        "type": "Polygon",
        "coordinates": [
          [
            [
              76.51663151859117,
              0.004690110177318418
            ],
            [
              76.5180649701029,
              0.004690119438763832
            ],
            [
              76.51806496169536,
              0.005862649298358501
            ],
            [
              76.51663151018097,
              0.005862637721551719
            ],
            [
              76.51663151859117,
              0.004690110177318418
            ]
          ]
        ]
      },
      "properties": {
        "structure_id": "STR-008",
        "class": "residential_house",
        "confidence": 0.95,
        "source": "synthetic_ground_truth_fixture",
        "verification_method": "fixture_not_model_output",
        "processing_crs": "EPSG:32644",
        "record_status": "synthetic",
        "status": "municipal_matched",
        "stage2_reason": "Spatially intersects municipal building record MUN-BLD-008.",
        "municipal_building_id": "MUN-BLD-008",
        "municipal_record": {
          "municipal_building_id": "MUN-BLD-008",
          "structure_ref": "STR-008",
          "building_status": "registered",
          "building_use": "residential",
          "source_department": "Urban Local Body / Municipal Corporation",
          "source_authority": "Synthetic Meerut Nagar Nigam",
          "record_status": "synthetic"
        }
      }
    },
    {
      "type": "Feature",
      "geometry": {
        "type": "Polygon",
        "coordinates": [
          [
            [
              76.52003597167959,
              0.0045097424696782335
            ],
            [
              76.52155902114447,
              0.004509751924270355
            ],
            [
              76.52155901232918,
              0.005772482462966606
            ],
            [
              76.52003596286133,
              0.005772470361088678
            ],
            [
              76.52003597167959,
              0.0045097424696782335
            ]
          ]
        ]
      },
      "properties": {
        "structure_id": "STR-009",
        "class": "building",
        "confidence": 0.88,
        "source": "synthetic_ground_truth_fixture",
        "verification_method": "fixture_not_model_output",
        "processing_crs": "EPSG:32644",
        "record_status": "synthetic",
        "status": "municipal_matched",
        "stage2_reason": "Spatially intersects municipal building record MUN-BLD-009.",
        "municipal_building_id": "MUN-BLD-009",
        "municipal_record": {
          "municipal_building_id": "MUN-BLD-009",
          "structure_ref": "STR-009",
          "building_status": "registered",
          "building_use": "commercial",
          "source_department": "Urban Local Body / Municipal Corporation",
          "source_authority": "Synthetic Meerut Nagar Nigam",
          "record_status": "synthetic"
        }
      }
    },
    {
      "type": "Feature",
      "geometry": {
        "type": "Polygon",
        "coordinates": [
          [
            [
              76.52353002994694,
              0.0046901547210769536
            ],
            [
              76.52505308673459,
              0.004690164546245095
            ],
            [
              76.52505307834005,
              0.005862705682710147
            ],
            [
              76.52353002154956,
              0.005862693401249954
            ],
            [
              76.52353002994694,
              0.0046901547210769536
            ]
          ]
        ]
      },
      "properties": {
        "structure_id": "STR-010",
        "class": "residential_house",
        "confidence": 0.97,
        "source": "synthetic_ground_truth_fixture",
        "verification_method": "fixture_not_model_output",
        "processing_crs": "EPSG:32644",
        "record_status": "synthetic",
        "status": "municipal_matched",
        "stage2_reason": "Spatially intersects municipal building record MUN-BLD-010.",
        "municipal_building_id": "MUN-BLD-010",
        "municipal_record": {
          "municipal_building_id": "MUN-BLD-010",
          "structure_ref": "STR-010",
          "building_status": "registered",
          "building_use": "residential",
          "source_department": "Urban Local Body / Municipal Corporation",
          "source_authority": "Synthetic Meerut Nagar Nigam",
          "record_status": "synthetic"
        }
      }
    }
  ]
}