{
  "type": "FeatureCollection",
  "crs": {
    "type": "name",
    "properties": {
      "name": "EPSG:4326"
    }
  },
  "features": [
    {
      "type": "Feature",
      "geometry": {
        "type": "Polygon",
        "coordinates": [
          [
            [
              76.51466054109864,
              0.0013529127225462634
            ],
            [
              76.51627316986401,
              0.0013529157293145195
            ],
            [
              76.51627316677282,
              0.0025254426947051893
            ],
            [
              76.51466053800637,
              0.0025254370820711075
            ],
            [
              76.51466054109864,
              0.0013529127225462634
            ]
          ]
        ]
      },
      "properties": {
        "structure_id": "STR-002",
        "class": "residential_house",
        "confidence": 0.91,
        "source": "synthetic_ground_truth_fixture",
        "verification_method": "geoai",
        "processing_crs": "EPSG:32644",
        "record_status": "synthetic",
        "status": "verified",
        "stage2_reason": "Spatially intersects municipal building record MUN-BLD-002.",
        "municipal_building_id": "MUN-BLD-002",
        "municipal_record": {
          "municipal_building_id": "MUN-BLD-002",
          "structure_ref": "STR-002",
          "building_status": "registered",
          "building_use": "residential",
          "source_department": "Urban Local Body / Municipal Corporation",
          "source_authority": "Synthetic Meerut Nagar Nigam",
          "record_status": "synthetic"
        },
        "parcel_id": "PAR-102",
        "related_parcel_ids": [],
        "overflow_measure": 0.0,
        "configured_threshold": 10.0,
        "reason": "Structure is completely contained within cadastral parcel PAR-102.",
        "municipality_reference": "MUN-BLD-002",
        "provenance": "geoai_pipeline",
        "cadastral_record": {
          "parcel_id": "PAR-102",
          "khasra_no": "KHS-102",
          "khata_no": "KHT-102",
          "land_use": "residential",
          "record_area_sqm": 89600.0,
          "tehsil": "Tehsil-Alpha",
          "district": "Synthetic-District",
          "source_department": "Directorate of Land Records / Cadastral System",
          "source_system": "Synthetic Bhu-Naksha",
          "record_status": "synthetic"
        }
      }
    },
    {
      "type": "Feature",
      "geometry": {
        "type": "Polygon",
        "coordinates": [
          [
            [
              76.51752743931925,
              0.0012627235293596682
            ],
            [
              76.51887130168286,
              0.0012627258665438934
            ],
            [
              76.51887129903007,
              0.0023450623235693625
            ],
            [
              76.51752743666567,
              0.002345057983084368
            ],
            [
              76.51752743931925,
              0.0012627235293596682
            ]
          ]
        ]
      },
      "properties": {
        "structure_id": "STR-003",
        "class": "building",
        "confidence": 0.96,
        "source": "synthetic_ground_truth_fixture",
        "verification_method": "geoai",
        "processing_crs": "EPSG:32644",
        "record_status": "synthetic",
        "status": "verified",
        "stage2_reason": "Spatially intersects municipal building record MUN-BLD-003.",
        "municipal_building_id": "MUN-BLD-003",
        "municipal_record": {
          "municipal_building_id": "MUN-BLD-003",
          "structure_ref": "STR-003",
          "building_status": "registered",
          "building_use": "residential",
          "source_department": "Urban Local Body / Municipal Corporation",
          "source_authority": "Synthetic Meerut Nagar Nigam",
          "record_status": "synthetic"
        },
        "parcel_id": "PAR-103",
        "related_parcel_ids": [],
        "overflow_measure": 0.0,
        "configured_threshold": 10.0,
        "reason": "Structure is completely contained within cadastral parcel PAR-103.",
        "municipality_reference": "MUN-BLD-003",
        "provenance": "geoai_pipeline",
        "cadastral_record": {
          "parcel_id": "PAR-103",
          "khasra_no": "KHS-103",
          "khata_no": "KHT-103",
          "land_use": "residential",
          "record_area_sqm": 70000.0,
          "tehsil": "Tehsil-Alpha",
          "district": "Synthetic-District",
          "source_department": "Directorate of Land Records / Cadastral System",
          "source_system": "Synthetic Bhu-Naksha",
          "record_status": "synthetic"
        }
      }
    },
    {
      "type": "Feature",
      "geometry": {
        "type": "Polygon",
        "coordinates": [
          [
            [
              76.52048393947047,
              0.0014431184802818767
            ],
            [
              76.52209658116966,
              0.0014431216833706115
            ],
            [
              76.52209657761303,
              0.002705853156301088
            ],
            [
              76.52048393591258,
              0.002705847150509706
            ],
            [
              76.52048393947047,
              0.0014431184802818767
            ]
          ]
        ]
      },
      "properties": {
        "structure_id": "STR-004",
        "class": "building",
        "confidence": 0.93,
        "source": "synthetic_ground_truth_fixture",
        "verification_method": "geoai",
        "processing_crs": "EPSG:32644",
        "record_status": "synthetic",
        "status": "verified",
        "stage2_reason": "Spatially intersects municipal building record MUN-BLD-004.",
        "municipal_building_id": "MUN-BLD-004",
        "municipal_record": {
          "municipal_building_id": "MUN-BLD-004",
          "structure_ref": "STR-004",
          "building_status": "registered",
          "building_use": "mixed_use",
          "source_department": "Urban Local Body / Municipal Corporation",
          "source_authority": "Synthetic Meerut Nagar Nigam",
          "record_status": "synthetic"
        },
        "parcel_id": "PAR-104",
        "related_parcel_ids": [
          "PAR-105"
        ],
        "overflow_measure": 5.0,
        "configured_threshold": 10.0,
        "reason": "Structure overflows parcel PAR-104 by 5.00 m, which is within configured threshold (10.00 m).",
        "municipality_reference": "MUN-BLD-004",
        "provenance": "geoai_pipeline",
        "cadastral_record": {
          "parcel_id": "PAR-104",
          "khasra_no": "KHS-104",
          "khata_no": "KHT-104",
          "land_use": "mixed_use",
          "record_area_sqm": 85400.0,
          "tehsil": "Tehsil-Alpha",
          "district": "Synthetic-District",
          "source_department": "Directorate of Land Records / Cadastral System",
          "source_system": "Synthetic Bhu-Naksha",
          "record_status": "synthetic"
        }
      }
    },
    {
      "type": "Feature",
      "geometry": {
        "type": "Polygon",
        "coordinates": [
          [
            [
              76.51663151859117,
              0.004690110177318418
            ],
            [
              76.5180649701029,
              0.004690119438763832
            ],
            [
              76.51806496169536,
              0.005862649298358501
            ],
            [
              76.51663151018097,
              0.005862637721551719
            ],
            [
              76.51663151859117,
              0.004690110177318418
            ]
          ]
        ]
      },
      "properties": {
        "structure_id": "STR-008",
        "class": "residential_house",
        "confidence": 0.95,
        "source": "synthetic_ground_truth_fixture",
        "verification_method": "geoai",
        "processing_crs": "EPSG:32644",
        "record_status": "synthetic",
        "status": "verified",
        "stage2_reason": "Spatially intersects municipal building record MUN-BLD-008.",
        "municipal_building_id": "MUN-BLD-008",
        "municipal_record": {
          "municipal_building_id": "MUN-BLD-008",
          "structure_ref": "STR-008",
          "building_status": "registered",
          "building_use": "residential",
          "source_department": "Urban Local Body / Municipal Corporation",
          "source_authority": "Synthetic Meerut Nagar Nigam",
          "record_status": "synthetic"
        },
        "parcel_id": "PAR-109",
        "related_parcel_ids": [],
        "overflow_measure": 0.0,
        "configured_threshold": 10.0,
        "reason": "Structure is completely contained within cadastral parcel PAR-109.",
        "municipality_reference": "MUN-BLD-008",
        "provenance": "geoai_pipeline",
        "cadastral_record": {
          "parcel_id": "PAR-109",
          "khasra_no": "KHS-109",
          "khata_no": "KHT-109",
          "land_use": "residential",
          "record_area_sqm": 75400.0,
          "tehsil": "Tehsil-Beta",
          "district": "Synthetic-District",
          "source_department": "Directorate of Land Records / Cadastral System",
          "source_system": "Synthetic Bhu-Naksha",
          "record_status": "synthetic"
        }
      }
    },
    {
      "type": "Feature",
      "geometry": {
        "type": "Polygon",
        "coordinates": [
          [
            [
              76.52003597167959,
              0.004509742469678232
            ],
            [
              76.52155902114447,
              0.004509751924270355
            ],
            [
              76.52155901232918,
              0.005772482462966606
            ],
            [
              76.52003596286133,
              0.005772470361088677
            ],
            [
              76.52003597167959,
              0.004509742469678232
            ]
          ]
        ]
      },
      "properties": {
        "structure_id": "STR-009",
        "class": "building",
        "confidence": 0.88,
        "source": "synthetic_ground_truth_fixture",
        "verification_method": "geoai",
        "processing_crs": "EPSG:32644",
        "record_status": "synthetic",
        "status": "verified",
        "stage2_reason": "Spatially intersects municipal building record MUN-BLD-009.",
        "municipal_building_id": "MUN-BLD-009",
        "municipal_record": {
          "municipal_building_id": "MUN-BLD-009",
          "structure_ref": "STR-009",
          "building_status": "registered",
          "building_use": "commercial",
          "source_department": "Urban Local Body / Municipal Corporation",
          "source_authority": "Synthetic Meerut Nagar Nigam",
          "record_status": "synthetic"
        },
        "parcel_id": "PAR-110",
        "related_parcel_ids": [],
        "overflow_measure": 0.0,
        "configured_threshold": 10.0,
        "reason": "Structure is completely contained within cadastral parcel PAR-110.",
        "municipality_reference": "MUN-BLD-009",
        "provenance": "geoai_pipeline",
        "cadastral_record": {
          "parcel_id": "PAR-110",
          "khasra_no": "KHS-110",
          "khata_no": "KHT-110",
          "land_use": "commercial",
          "record_area_sqm": 87000.0,
          "tehsil": "Tehsil-Beta",
          "district": "Synthetic-District",
          "source_department": "Directorate of Land Records / Cadastral System",
          "source_system": "Synthetic Bhu-Naksha",
          "record_status": "synthetic"
        }
      }
    },
    {
      "type": "Feature",
      "geometry": {
        "type": "Polygon",
        "coordinates": [
          [
            [
              76.52353002994694,
              0.0046901547210769536
            ],
            [
              76.52505308673459,
              0.004690164546245095
            ],
            [
              76.52505307834005,
              0.005862705682710147
            ],
            [
              76.52353002154956,
              0.005862693401249954
            ],
            [
              76.52353002994694,
              0.0046901547210769536
            ]
          ]
        ]
      },
      "properties": {
        "structure_id": "STR-010",
        "class": "residential_house",
        "confidence": 0.97,
        "source": "synthetic_ground_truth_fixture",
        "verification_method": "geoai",
        "processing_crs": "EPSG:32644",
        "record_status": "synthetic",
        "status": "verified",
        "stage2_reason": "Spatially intersects municipal building record MUN-BLD-010.",
        "municipal_building_id": "MUN-BLD-010",
        "municipal_record": {
          "municipal_building_id": "MUN-BLD-010",
          "structure_ref": "STR-010",
          "building_status": "registered",
          "building_use": "residential",
          "source_department": "Urban Local Body / Municipal Corporation",
          "source_authority": "Synthetic Meerut Nagar Nigam",
          "record_status": "synthetic"
        },
        "parcel_id": "PAR-111",
        "related_parcel_ids": [],
        "overflow_measure": 0.0,
        "configured_threshold": 10.0,
        "reason": "Structure is completely contained within cadastral parcel PAR-111.",
        "municipality_reference": "MUN-BLD-010",
        "provenance": "geoai_pipeline",
        "cadastral_record": {
          "parcel_id": "PAR-111",
          "khasra_no": "KHS-111",
          "khata_no": "KHT-111",
          "land_use": "residential",
          "record_area_sqm": 87000.0,
          "tehsil": "Tehsil-Beta",
          "district": "Synthetic-District",
          "source_department": "Directorate of Land Records / Cadastral System",
          "source_system": "Synthetic Bhu-Naksha",
          "record_status": "synthetic"
        }
      }
    }
  ]
}