{
    "type": "FeatureCollection",
    "features": [
        {
            "type": "Feature",
            "id": "Meerut",
            "properties": {
                "d_id_11": 544,
                "Country": "INDIA",
                "Name": "Meerut",
                "Admin": "Gaurav Sahu",
                "State": "Uttar Pradesh"
            },
            "geometry": {
                "type": "Polygon",
                "coordinates": [
                    [
                        [
                            78.060966491699219,
                            29.26793289184593
                        ],
                        [
                            78.125549316406307,
                            29.259180068970011
                        ],
                        [
                            78.131156921386719,
                            29.185800552368164
                        ],
                        [
                            78.073410034179858,
                            29.073871612548828
                        ],
                        [
                            78.085823059082088,
                            28.989700317382812
                        ],
                        [
                            78.047622680664063,
                            28.942899703979492
                        ],
                        [
                            78.052627563476562,
                            28.89843940734886
                        ],
                        [
                            78.104980468750284,
                            28.862171173095703
                        ],
                        [
                            77.924636840820483,
                            28.842260360718001
                        ],
                        [
                            77.861991882324503,
                            28.869382858276481
                        ],
                        [
                            77.857368469238338,
                            28.800310134887695
                        ],
                        [
                            77.781852722168082,
                            28.791641235351847
                        ],
                        [
                            77.717712402343807,
                            28.741960525512695
                        ],
                        [
                            77.680313110351562,
                            28.763549804687557
                        ],
                        [
                            77.70749664306669,
                            28.814649581909293
                        ],
                        [
                            77.682441711425838,
                            28.880609512329102
                        ],
                        [
                            77.451171874999943,
                            28.91106033325218
                        ],
                        [
                            77.472442626953182,
                            28.994352340698356
                        ],
                        [
                            77.443428039550838,
                            29.035089492797795
                        ],
                        [
                            77.443382263183764,
                            29.131069183349553
                        ],
                        [
                            77.47808837890625,
                            29.202304840087947
                        ],
                        [
                            77.521209716797046,
                            29.20784950256359
                        ],
                        [
                            77.579643249511776,
                            29.266941070556641
                        ],
                        [
                            77.629158020019702,
                            29.228349685669116
                        ],
                        [
                            77.673789978027514,
                            29.251329421997184
                        ],
                        [
                            77.770828247070597,
                            29.185979843139705
                        ],
                        [
                            78.060966491699219,
                            29.26793289184593
                        ]
                    ]
                ]
            }
        }
    ]
}