{
  "type": "FeatureCollection",
  "name": "mock_legacy_cadastral",
  "crs": {
    "type": "name",
    "properties": {
      "name": "urn:ogc:def:crs:EPSG::4326"
    }
  },
  "features": [
    {
      "type": "Feature",
      "properties": {
        "khasra_no": "LEG-101",
        "owner": "Ram Kumar"
      },
      "geometry": {
        "type": "Polygon",
        "coordinates": [
          [
            [
              77.700005,
              28.980005
            ],
            [
              77.701005,
              28.980005
            ],
            [
              77.701005,
              28.981005
            ],
            [
              77.700005,
              28.981005
            ],
            [
              77.6996211,
              28.9805182
            ]
          ]
        ]
      }
    }
  ]
}