{
  "type": "FeatureCollection",
  "name": "Stage2 synthetic real-data test set",
  "crs": {
    "type": "name",
    "properties": {
      "name": "urn:ogc:def:crs:OGC:1.3:CRS84"
    }
  },
  "features": [
    {
      "type": "Feature",
      "properties": {
        "parcel_id": "P001",
        "source": "Drone_CV_Extraction",
        "priority": 2,
        "model": "YOLOv8-Seg/SAM-synthetic",
        "confidence": 0.94
      },
      "geometry": {
        "type": "Polygon",
        "coordinates": [
          [
            [
              77.69969193326834,
              28.979820337765002
            ],
            [
              77.70030806673167,
              28.979820337765002
            ],
            [
              77.70030806673167,
              28.980179662235
            ],
            [
              77.69969193326834,
              28.980179662235
            ],
            [
              77.69969193326834,
              28.979820337765002
            ]
          ]
        ]
      }
    },
    {
      "type": "Feature",
      "properties": {
        "parcel_id": "P002",
        "source": "Drone_CV_Extraction",
        "priority": 2,
        "model": "YOLOv8-Seg/SAM-synthetic",
        "confidence": 0.94
      },
      "geometry": {
        "type": "Polygon",
        "coordinates": [
          [
            [
              77.70069244671289,
              28.979820337765002
            ],
            [
              77.70130858017622,
              28.979820337765002
            ],
            [
              77.70130858017622,
              28.980179662235
            ],
            [
              77.70069244671289,
              28.980179662235
            ],
            [
              77.70069244671289,
              28.979820337765002
            ]
          ]
        ]
      }
    },
    {
      "type": "Feature",
      "properties": {
        "parcel_id": "P003",
        "source": "Drone_CV_Extraction",
        "priority": 2,
        "model": "YOLOv8-Seg/SAM-synthetic",
        "confidence": 0.89
      },
      "geometry": {
        "type": "Polygon",
        "coordinates": [
          [
            [
              77.70169398704655,
              28.979820337765002
            ],
            [
              77.70231012050988,
              28.979820337765002
            ],
            [
              77.70231012050988,
              28.980179662235
            ],
            [
              77.70169398704655,
              28.980179662235
            ],
            [
              77.70169398704655,
              28.979820337765002
            ]
          ]
        ]
      }
    },
    {
      "type": "Feature",
      "properties": {
        "parcel_id": "P004",
        "source": "Drone_CV_Extraction",
        "priority": 2,
        "model": "YOLOv8-Seg/SAM-synthetic",
        "confidence": 0.89
      },
      "geometry": {
        "type": "Polygon",
        "coordinates": [
          [
            [
              77.7027042559376,
              28.979820337765002
            ],
            [
              77.70332038940093,
              28.979820337765002
            ],
            [
              77.70332038940093,
              28.980179662235
            ],
            [
              77.7027042559376,
              28.980179662235
            ],
            [
              77.7027042559376,
              28.979820337765002
            ]
          ]
        ]
      }
    },
    {
      "type": "Feature",
      "properties": {
        "parcel_id": "P005",
        "source": "Drone_CV_Extraction",
        "priority": 2,
        "model": "YOLOv8-Seg/SAM-synthetic",
        "confidence": 0.89
      },
      "geometry": {
        "type": "Polygon",
        "coordinates": [
          [
            [
              77.70369809460298,
              28.979820337765002
            ],
            [
              77.70431422806631,
              28.979820337765002
            ],
            [
              77.70431422806631,
              28.980179662235
            ],
            [
              77.70369809460298,
              28.980179662235
            ],
            [
              77.70369809460298,
              28.979820337765002
            ]
          ]
        ]
      }
    },
    {
      "type": "Feature",
      "properties": {
        "parcel_id": "P006",
        "source": "Drone_CV_Extraction",
        "priority": 2,
        "model": "YOLOv8-Seg/SAM-synthetic",
        "confidence": 0.89
      },
      "geometry": {
        "type": "Polygon",
        "coordinates": [
          [
            [
              77.70594865554473,
              28.981020337765003
            ],
            [
              77.70656478900806,
              28.981020337765003
            ],
            [
              77.70656478900806,
              28.981379662235
            ],
            [
              77.70594865554473,
              28.981379662235
            ],
            [
              77.70594865554473,
              28.981020337765003
            ]
          ]
        ]
      }
    }
  ]
}