{
    "type": "FeatureCollection",
    "features": [
        {
            "type": "Feature",
            "properties": {
                "name": "Letter M"
            },
            "geometry": {
                "type": "LineString",
                "coordinates": [
                    [
                        77.68,
                        28.95
                    ],
                    [
                        77.68,
                        29.01
                    ],
                    [
                        77.71,
                        28.98
                    ],
                    [
                        77.74,
                        29.01
                    ],
                    [
                        77.74,
                        28.95
                    ]
                ]
            }
        }
    ]
}