{
  "type": "FeatureCollection",
  "features": [
    {
      "type": "Feature",
      "geometry": {
        "type": "Polygon",
        "coordinates": [
          [
            [
              77.71170406544682,
              28.98045096906911850905
            ],
            [
              77.71421259040639,
              28.98045097062904848916
            ],
            [
              77.71421258451997,
              28.982976406151685819
            ],
            [
              77.71170405955715,
              28.982976395856147942
            ],
            [
              77.71170406544682,
              28.98045096906911850905
            ]
          ]
        ]
      },
      "properties": {
        "parcel_id": "PAR-101",
        "khasra_no": "KHS-101",
        "khata_no": "KHT-101",
        "land_use": "residential",
        "record_area_sqm": 78400.0,
        "tehsil": "Tehsil-Alpha",
        "district": "Synthetic-District",
        "source_department": "Directorate of Land Records / Cadastral System",
        "source_system": "Synthetic Bhu-Naksha",
        "record_status": "synthetic"
      }
    },
    {
      "type": "Feature",
      "geometry": {
        "type": "Polygon",
        "coordinates": [
          [
            [
              77.71421259040639,
              28.98045097062904848916
            ],
            [
              77.71707948669628,
              28.98045097241076647493
            ],
            [
              77.71707948081359,
              28.9829764179110245348
            ],
            [
              77.71421258451997,
              28.982976406151685819
            ],
            [
              77.71421259040639,
              28.98045097062904848916
            ]
          ]
        ]
      },
      "properties": {
        "parcel_id": "PAR-102",
        "khasra_no": "KHS-102",
        "khata_no": "KHT-102",
        "land_use": "residential",
        "record_area_sqm": 89600.0,
        "tehsil": "Tehsil-Alpha",
        "district": "Synthetic-District",
        "source_department": "Directorate of Land Records / Cadastral System",
        "source_system": "Synthetic Bhu-Naksha",
        "record_status": "synthetic"
      }
    },
    {
      "type": "Feature",
      "geometry": {
        "type": "Polygon",
        "coordinates": [
          [
            [
              77.71707948669628,
              28.98045097241076647493
            ],
            [
              77.71931925730172,
              28.98045097380194756133
            ],
            [
              77.71931925142195,
              28.9829764270928197127
            ],
            [
              77.71707948081359,
              28.9829764179110245348
            ],
            [
              77.71707948669628,
              28.98045097241076647493
            ]
          ]
        ]
      },
      "properties": {
        "parcel_id": "PAR-103",
        "khasra_no": "KHS-103",
        "khata_no": "KHT-103",
        "land_use": "residential",
        "record_area_sqm": 70000.0,
        "tehsil": "Tehsil-Alpha",
        "district": "Synthetic-District",
        "source_department": "Directorate of Land Records / Cadastral System",
        "source_system": "Synthetic Bhu-Naksha",
        "record_status": "synthetic"
      }
    },
    {
      "type": "Feature",
      "geometry": {
        "type": "Polygon",
        "coordinates": [
          [
            [
              77.71931925730172,
              28.98045097380194756133
            ],
            [
              77.72205178679434,
              28.98045097549825467786
            ],
            [
              77.72205178091812,
              28.982976438288446691
            ],
            [
              77.71931925142195,
              28.9829764270928197127
            ],
            [
              77.71931925730172,
              28.98045097380194756133
            ]
          ]
        ]
      },
      "properties": {
        "parcel_id": "PAR-104",
        "khasra_no": "KHS-104",
        "khata_no": "KHT-104",
        "land_use": "mixed_use",
        "record_area_sqm": 85400.0,
        "tehsil": "Tehsil-Alpha",
        "district": "Synthetic-District",
        "source_department": "Directorate of Land Records / Cadastral System",
        "source_system": "Synthetic Bhu-Naksha",
        "record_status": "synthetic"
      }
    },
    {
      "type": "Feature",
      "geometry": {
        "type": "Polygon",
        "coordinates": [
          [
            [
              77.72200699114601,
              28.9804509754704546394
            ],
            [
              77.72464993912021,
              28.9804509771101849622
            ],
            [
              77.72464993324737,
              28.9829764489271865767
            ],
            [
              77.72200698526975,
              28.9829764381049664367
            ],
            [
              77.72200699114601,
              28.9804509754704546394
            ]
          ]
        ]
      },
      "properties": {
        "parcel_id": "PAR-105",
        "khasra_no": "KHS-105",
        "khata_no": "KHT-105",
        "land_use": "residential",
        "record_area_sqm": 82600.0,
        "tehsil": "Tehsil-Beta",
        "district": "Synthetic-District",
        "source_department": "Directorate of Land Records / Cadastral System",
        "source_system": "Synthetic Bhu-Naksha",
        "record_status": "synthetic"
      }
    },
    {
      "type": "Feature",
      "geometry": {
        "type": "Polygon",
        "coordinates": [
          [
            [
              77.72469473493139,
              28.9804509771379687265
            ],
            [
              77.72747208061362,
              28.9804509788600234051
            ],
            [
              77.72747207474447,
              28.9829764604761203096
            ],
            [
              77.72469472905861,
              28.982976449110559422
            ],
            [
              77.72469473493139,
              28.9804509771379687265
            ]
          ]
        ]
      },
      "properties": {
        "parcel_id": "PAR-106",
        "khasra_no": "KHS-106",
        "khata_no": "KHT-106",
        "land_use": "industrial",
        "record_area_sqm": 86800.0,
        "tehsil": "Tehsil-Beta",
        "district": "Synthetic-District",
        "source_department": "Directorate of Land Records / Cadastral System",
        "source_system": "Synthetic Bhu-Naksha",
        "record_status": "synthetic"
      }
    },
    {
      "type": "Feature",
      "geometry": {
        "type": "Polygon",
        "coordinates": [
          [
            [
              77.71215200560043,
              28.9838783363904950586
            ],
            [
              77.71430217065318,
              28.983878347888724365
            ],
            [
              77.71430215220317,
              28.986493977859955685
            ],
            [
              77.71215198714164,
              28.9864939586071065675
            ],
            [
              77.71215200560043,
              28.9838783363904950586
            ]
          ]
        ]
      },
      "properties": {
        "parcel_id": "PAR-107",
        "khasra_no": "KHS-107",
        "khata_no": "KHT-107",
        "land_use": "residential",
        "record_area_sqm": 69600.0,
        "tehsil": "Tehsil-Alpha",
        "district": "Synthetic-District",
        "source_department": "Directorate of Land Records / Cadastral System",
        "source_system": "Synthetic Bhu-Naksha",
        "record_status": "synthetic"
      }
    },
    {
      "type": "Feature",
      "geometry": {
        "type": "Polygon",
        "coordinates": [
          [
            [
              77.71430217065318,
              28.983878347888724365
            ],
            [
              77.7157356175625,
              28.983878355551174391
            ],
            [
              77.71573559911833,
              28.986493990690104599
            ],
            [
              77.71430215220317,
              28.986493977859955685
            ],
            [
              77.71430217065318,
              28.983878347888724365
            ]
          ]
        ]
      },
      "properties": {
        "parcel_id": "PAR-108",
        "khasra_no": "KHS-108",
        "khata_no": "KHT-108",
        "land_use": "residential",
        "record_area_sqm": 46400.0,
        "tehsil": "Tehsil-Alpha",
        "district": "Synthetic-District",
        "source_department": "Directorate of Land Records / Cadastral System",
        "source_system": "Synthetic Bhu-Naksha",
        "record_status": "synthetic"
      }
    },
    {
      "type": "Feature",
      "geometry": {
        "type": "Polygon",
        "coordinates": [
          [
            [
              77.71609397973229,
              28.9838783574664073704
            ],
            [
              77.71842333814884,
              28.9838783699117213304
            ],
            [
              77.71842331971562,
              28.986494014735671632
            ],
            [
              77.7160939612896,
              28.9864939938970063425
            ],
            [
              77.71609397973229,
              28.9838783574664073704
            ]
          ]
        ]
      },
      "properties": {
        "parcel_id": "PAR-109",
        "khasra_no": "KHS-109",
        "khata_no": "KHT-109",
        "land_use": "residential",
        "record_area_sqm": 75400.0,
        "tehsil": "Tehsil-Beta",
        "district": "Synthetic-District",
        "source_department": "Directorate of Land Records / Cadastral System",
        "source_system": "Synthetic Bhu-Naksha",
        "record_status": "synthetic"
      }
    },
    {
      "type": "Feature",
      "geometry": {
        "type": "Polygon",
        "coordinates": [
          [
            [
              77.71931924722211,
              28.9838783746966726492
            ],
            [
              77.72200698107241,
              28.9838783890458335413
            ],
            [
              77.72200696265382,
              28.986494046774185185
            ],
            [
              77.71931922879257,
              28.986494022747683165
            ],
            [
              77.71931924722211,
              28.9838783746966726492
            ]
          ]
        ]
      },
      "properties": {
        "parcel_id": "PAR-110",
        "khasra_no": "KHS-110",
        "khata_no": "KHT-110",
        "land_use": "commercial",
        "record_area_sqm": 87000.0,
        "tehsil": "Tehsil-Beta",
        "district": "Synthetic-District",
        "source_department": "Directorate of Land Records / Cadastral System",
        "source_system": "Synthetic Bhu-Naksha",
        "record_status": "synthetic"
      }
    },
    {
      "type": "Feature",
      "geometry": {
        "type": "Polygon",
        "coordinates": [
          [
            [
              77.72290289456526,
              28.983878393826989464
            ],
            [
              77.725590641669,
              28.9838784081647640248
            ],
            [
              77.72559062326503,
              28.986494078787278171
            ],
            [
              77.72290287615034,
              28.986494054779841633
            ],
            [
              77.72290289456526,
              28.983878393826989464
            ]
          ]
        ]
      },
      "properties": {
        "parcel_id": "PAR-111",
        "khasra_no": "KHS-111",
        "khata_no": "KHT-111",
        "land_use": "residential",
        "record_area_sqm": 87000.0,
        "tehsil": "Tehsil-Beta",
        "district": "Synthetic-District",
        "source_department": "Directorate of Land Records / Cadastral System",
        "source_system": "Synthetic Bhu-Naksha",
        "record_status": "synthetic"
      }
    }
  ]
}