{
  "type": "FeatureCollection",
  "features": [
    {
      "type": "Feature",
      "geometry": {
        "type": "Polygon",
        "coordinates": [
          [
            [
              76.51591480685431,
              0.0017136924108970125
            ],
            [
              76.5165419409213,
              0.0017136938917593327
            ],
            [
              76.51654193959837,
              0.0022097631762102725
            ],
            [
              76.5159148055312,
              0.0022097612666772803
            ],
            [
              76.51591480685431,
              0.0017136924108970125
            ]
          ]
        ]
      },
      "properties": {
        "municipal_building_id": "MUN-BLD-002",
        "structure_ref": "STR-002",
        "building_status": "registered",
        "building_use": "residential",
        "source_department": "Urban Local Body / Municipal Corporation",
        "source_authority": "Synthetic Meerut Nagar Nigam",
        "record_status": "synthetic"
      }
    },
    {
      "type": "Feature",
      "geometry": {
        "type": "Polygon",
        "coordinates": [
          [
            [
              76.5175095211712,
              0.0012627234981925156
            ],
            [
              76.51750951851761,
              0.0023450579252025164
            ],
            [
              76.51750960479276,
              0.002346826047571692
            ],
            [
              76.51750986279858,
              0.0023485771425145836
            ],
            [
              76.51751029005034,
              0.002350294346030848
            ],
            [
              76.51751088243338,
              0.0023519611205130137
            ],
            [
              76.51751163424271,
              0.0023535614140126368
            ],
            [
              76.51751253823801,
              0.002355079814829304
            ],
            [
              76.51751358571333,
              0.0023565016999336987
            ],
            [
              76.51751476658087,
              0.0023578133757953526
            ],
            [
              76.51751606946826,
              0.0023590022102588015
            ],
            [
              76.51751748182797,
              0.0023600567541981594
            ],
            [
              76.51751899005822,
              0.0023609668517784507
            ],
            [
              76.51752057963392,
              0.002361723738261875
            ],
            [
              76.51752223524659,
              0.0023623201244170437
            ],
            [
              76.51752394095176,
              0.0023627502667182914
            ],
            [
              76.51752568032259,
              0.0023630100226590097
            ],
            [
              76.51752743660796,
              0.0023630968906462914
            ],
            [
              76.51887129897237,
              0.00236310126451963
            ],
            [
              76.51887305526157,
              0.002363014407803543
            ],
            [
              76.51887479463727,
              0.002362754662701421
            ],
            [
              76.5188765003484,
              0.0023623245306993866
            ],
            [
              76.51887815596798,
              0.002361728154202644
            ],
            [
              76.51887974555152,
              0.0023609712766419003
            ],
            [
              76.51888125379043,
              0.0023600611871610186
            ],
            [
              76.51888266615956,
              0.0023590066504186134
            ],
            [
              76.51888396905703,
              0.0023578178221796194
            ],
            [
              76.5188851499352,
              0.0023565061515097327
            ],
            [
              76.5188861974216,
              0.002355084270514662
            ],
            [
              76.51888710142832,
              0.002353565872686033
            ],
            [
              76.51888785324932,
              0.0023519655810255685
            ],
            [
              76.51888844564414,
              0.002350298807217565
            ],
            [
              76.51888887290767,
              0.002348581603205916
            ],
            [
              76.51888913092515,
              0.0023468305066050815
            ],
            [
              76.51888921721172,
              0.002345062381433775
            ],
            [
              76.51888921986452,
              0.001262725897701654
            ],
            [
              76.5188891335866,
              0.001260957772101656
            ],
            [
              76.5188888755777,
              0.0012592066742189263
            ],
            [
              76.51888844832258,
              0.0012574894680845257
            ],
            [
              76.51888785593594,
              0.0012558226913333566
            ],
            [
              76.5188871041228,
              0.001254222395937657
            ],
            [
              76.5188862001235,
              0.0012527039936176937
            ],
            [
              76.51888515264409,
              0.001251282107418445
            ],
            [
              76.51888397177234,
              0.0012499704308816554
            ],
            [
              76.5188826688807,
              0.0012487815961695328
            ],
            [
              76.51888125651674,
              0.0012477270524101146
            ],
            [
              76.51887974828229,
              0.0012468169554359111
            ],
            [
              76.51887815870246,
              0.0012460600699777012
            ],
            [
              76.5188765030858,
              0.0012454636852554063
            ],
            [
              76.5188747973768,
              0.0012450335447789476
            ],
            [
              76.51887305800234,
              0.0012447737910351434
            ],
            [
              76.51887130171359,
              0.0012446869255933412
            ],
            [
              76.51752743934999,
              0.001244684621797461
            ],
            [
              76.5175256830642,
              0.0012447714810564301
            ],
            [
              76.5175239436921,
              0.001245031228352895
            ],
            [
              76.5175222379848,
              0.0012454613621771956
            ],
            [
              76.51752058236922,
              0.0012460577401043615
            ],
            [
              76.51751899278982,
              0.001246814618687969
            ],
            [
              76.5175174845551,
              0.0012477247087727082
            ],
            [
              76.51751607219022,
              0.001248779245692965
            ],
            [
              76.517514769297,
              0.0012499680736813648
            ],
            [
              76.51751358842303,
              0.0012512797436743765
            ],
            [
              76.51751254094074,
              0.0012527016235730588
            ],
            [
              76.517511636938,
              0.0012542200198970746
            ],
            [
              76.51751088512083,
              0.0012558203096603745
            ],
            [
              76.51751029272961,
              0.00125748708119853
            ],
            [
              76.51750986546944,
              0.0012592042825914488
            ],
            [
              76.51750960745503,
              0.001260955376252109
            ],
            [
              76.5175095211712,
              0.0012627234981925156
            ]
          ]
        ]
      },
      "properties": {
        "municipal_building_id": "MUN-BLD-003",
        "structure_ref": "STR-003",
        "building_status": "registered",
        "building_use": "residential",
        "source_department": "Urban Local Body / Municipal Corporation",
        "source_authority": "Synthetic Meerut Nagar Nigam",
        "record_status": "synthetic"
      }
    },
    {
      "type": "Feature",
      "geometry": {
        "type": "Polygon",
        "coordinates": [
          [
            [
              76.52057353039976,
              0.0015333135744020438
            ],
            [
              76.522006989688,
              0.0015333165995414046
            ],
            [
              76.5220069866394,
              0.0026156577286138697
            ],
            [
              76.5205735273502,
              0.0026156525680820176
            ],
            [
              76.52057353039976,
              0.0015333135744020438
            ]
          ]
        ]
      },
      "properties": {
        "municipal_building_id": "MUN-BLD-004",
        "structure_ref": "STR-004",
        "building_status": "registered",
        "building_use": "mixed_use",
        "source_department": "Urban Local Body / Municipal Corporation",
        "source_authority": "Synthetic Meerut Nagar Nigam",
        "record_status": "synthetic"
      }
    },
    {
      "type": "Feature",
      "geometry": {
        "type": "Polygon",
        "coordinates": [
          [
            [
              76.5232612693983,
              0.001262733496501739
            ],
            [
              76.52469473398756,
              0.001262735986310104
            ],
            [
              76.52469473104564,
              0.002435276545012623
            ],
            [
              76.52326126645546,
              0.0024352717432393456
            ],
            [
              76.5232612693983,
              0.001262733496501739
            ]
          ]
        ]
      },
      "properties": {
        "municipal_building_id": "MUN-BLD-005",
        "structure_ref": "STR-005",
        "building_status": "registered",
        "building_use": "residential",
        "source_department": "Urban Local Body / Municipal Corporation",
        "source_authority": "Synthetic Meerut Nagar Nigam",
        "record_status": "synthetic"
      }
    },
    {
      "type": "Feature",
      "geometry": {
        "type": "Polygon",
        "coordinates": [
          [
            [
              76.52612820107171,
              0.0014431296860877435
            ],
            [
              76.52765126329598,
              0.0014431327074757516
            ],
            [
              76.52765126006916,
              0.002615678032283293
            ],
            [
              76.52612819784383,
              0.0026156725560175257
            ],
            [
              76.52612820107171,
              0.0014431296860877435
            ]
          ]
        ]
      },
      "properties": {
        "municipal_building_id": "MUN-BLD-006",
        "structure_ref": "STR-006",
        "building_status": "registered",
        "building_use": "industrial",
        "source_department": "Urban Local Body / Municipal Corporation",
        "source_authority": "Synthetic Meerut Nagar Nigam",
        "record_status": "synthetic"
      }
    },
    {
      "type": "Feature",
      "geometry": {
        "type": "Polygon",
        "coordinates": [
          [
            [
              76.51348689538493,
              0.004509701778598898
            ],
            [
              76.5134868858401,
              0.005862612312069313
            ],
            [
              76.5134869289732,
              0.00586349636856213
            ],
            [
              76.5134870579712,
              0.0058643719118053736
            ],
            [
              76.51348727159179,
              0.005865230509839292
            ],
            [
              76.51348756777769,
              0.005866063893895737
            ],
            [
              76.51348794367644,
              0.005866864038030916
            ],
            [
              76.51348839566795,
              0.005867623236419602
            ],
            [
              76.51348891939931,
              0.005868334177566439
            ],
            [
              76.51348950982667,
              0.005868990014719639
            ],
            [
              76.51349016126392,
              0.005869584431808924
            ],
            [
              76.51349086743733,
              0.005870111704272754
            ],
            [
              76.51349162154611,
              0.005870566754188975
            ],
            [
              76.51349241632774,
              0.005870945199177989
            ],
            [
              76.51349324412804,
              0.005871243394607474
            ],
            [
              76.51349409697488,
              0.0058714584686921905
            ],
            [
              76.51349496665485,
              0.005871588350150853
            ],
            [
              76.51349584479244,
              0.005871631788153715
            ],
            [
              76.51510847097697,
              0.005871644840889296
            ],
            [
              76.51510934911724,
              0.005871601417005246
            ],
            [
              76.5151102188012,
              0.0058714715493357016
            ],
            [
              76.51511107165338,
              0.005871256488577013
            ],
            [
              76.5151118994603,
              0.005870958305881573
            ],
            [
              76.51511269424974,
              0.005870579872911497
            ],
            [
              76.51511344836746,
              0.005870124834182963
            ],
            [
              76.51511415455089,
              0.005869597571967527
            ],
            [
              76.51511480599909,
              0.005869003164088462
            ],
            [
              76.51511539643823,
              0.005868347335018551
            ],
            [
              76.51511592018211,
              0.005867636400750282
            ],
            [
              76.51511637218677,
              0.005866877207969383
            ],
            [
              76.51511674809913,
              0.005866077068117501
            ],
            [
              76.51511704429899,
              0.005865243686979011
            ],
            [
              76.51511725793375,
              0.005864385090470089
            ],
            [
              76.515117386946,
              0.005863509547344755
            ],
            [
              76.51511743009331,
              0.005862625489562222
            ],
            [
              76.51511743963471,
              0.00450971191513189
            ],
            [
              76.51511739649987,
              0.004508827856732588
            ],
            [
              76.51511726749997,
              0.00450795231176298
            ],
            [
              76.5151170538773,
              0.004507093712200047
            ],
            [
              76.51511675768921,
              0.004506260326827218
            ],
            [
              76.51511638178812,
              0.0045054601816014415
            ],
            [
              76.51511592979419,
              0.004504700982358856
            ],
            [
              76.51511540606035,
              0.004503990040603331
            ],
            [
              76.51511481563044,
              0.004503334203092702
            ],
            [
              76.51511416419063,
              0.00450273978590075
            ],
            [
              76.51511345801464,
              0.004502212513589937
            ],
            [
              76.51511270390336,
              0.004501757464080766
            ],
            [
              76.51511190911923,
              0.004501379019748614
            ],
            [
              76.51511108131652,
              0.004501080825219085
            ],
            [
              76.51511022846739,
              0.004500865752268257
            ],
            [
              76.51510935878524,
              0.004500735872165943
            ],
            [
              76.51510848064561,
              0.004500692435728231
            ],
            [
              76.51349585446452,
              0.0045006824306359945
            ],
            [
              76.51349497632631,
              0.004500725856080716
            ],
            [
              76.51349410664452,
              0.004500855725102184
            ],
            [
              76.51349325379466,
              0.004501070786990428
            ],
            [
              76.51349242599014,
              0.004501368970581618
            ],
            [
              76.51349163120317,
              0.00450174740420453
            ],
            [
              76.51349087708797,
              0.004502202443336299
            ],
            [
              76.51349017090712,
              0.004502729705701191
            ],
            [
              76.51348951946149,
              0.004503324113474306
            ],
            [
              76.51348892902487,
              0.004503979942183827
            ],
            [
              76.5134884052835,
              0.004504690875840794
            ],
            [
              76.51348795328126,
              0.004505450067765552
            ],
            [
              76.51348757737121,
              0.004506250206524994
            ],
            [
              76.51348728117357,
              0.004507083586345666
            ],
            [
              76.51348706754085,
              0.004507942181324567
            ],
            [
              76.51348693853049,
              0.0045088177227229735
            ],
            [
              76.51348689538493,
              0.004509701778598898
            ]
          ]
        ]
      },
      "properties": {
        "municipal_building_id": "MUN-BLD-007",
        "structure_ref": "STR-007",
        "building_status": "registered",
        "building_use": "residential",
        "source_department": "Urban Local Body / Municipal Corporation",
        "source_authority": "Synthetic Meerut Nagar Nigam",
        "record_status": "synthetic"
      }
    },
    {
      "type": "Feature",
      "geometry": {
        "type": "Polygon",
        "coordinates": [
          [
            [
              76.51662255952813,
              0.004690110119425147
            ],
            [
              76.51662255111792,
              0.0058626376491851305
            ],
            [
              76.5166225942512,
              0.005863521709498432
            ],
            [
              76.51662272324977,
              0.005864397256524882
            ],
            [
              76.51662293687129,
              0.005865255858268297
            ],
            [
              76.51662323305845,
              0.005866089245924802
            ],
            [
              76.51662360895885,
              0.005866889393515931
            ],
            [
              76.51662406095232,
              0.005867648595183181
            ],
            [
              76.51662458468594,
              0.005868359539399616
            ],
            [
              76.51662517511586,
              0.005869015379383886
            ],
            [
              76.51662582655592,
              0.005869609799038452
            ],
            [
              76.5166265327324,
              0.005870137073777067
            ],
            [
              76.51662728684443,
              0.00587059212565567
            ],
            [
              76.51662808162949,
              0.005870970572275764
            ],
            [
              76.5166289094334,
              0.005871268768989319
            ],
            [
              76.51662976228391,
              0.005871483843998728
            ],
            [
              76.51663063196763,
              0.005871613726013803
            ],
            [
              76.51663151010904,
              0.005871657164199435
            ],
            [
              76.51806496162345,
              0.005871668758816691
            ],
            [
              76.51806583976727,
              0.005871625334751079
            ],
            [
              76.51806670945479,
              0.005871495466547895
            ],
            [
              76.51806756231043,
              0.005871280404908624
            ],
            [
              76.51806839012073,
              0.00587098222099414
            ],
            [
              76.51806918491341,
              0.005870603786478304
            ],
            [
              76.5180699390342,
              0.005870148745892172
            ],
            [
              76.5180706452205,
              0.005869621481525199
            ],
            [
              76.51807129667134,
              0.005869027071221373
            ],
            [
              76.51807188711291,
              0.005868371239476828
            ],
            [
              76.5180724108589,
              0.005867660302309811
            ],
            [
              76.5180728628654,
              0.005866901106433969
            ],
            [
              76.5180732387793,
              0.005866100963320755
            ],
            [
              76.51807353498036,
              0.0058652675787859475
            ],
            [
              76.51807374861599,
              0.005864408978778436
            ],
            [
              76.51807387762877,
              0.00586353343208593
            ],
            [
              76.51807392077623,
              0.0058626493707020005
            ],
            [
              76.51807392918374,
              0.00469011949663863
            ],
            [
              76.51807388604897,
              0.004689235434627619
            ],
            [
              76.51807375704873,
              0.004688359886060001
            ],
            [
              76.51807354342542,
              0.004687501282947399
            ],
            [
              76.5180732472363,
              0.004686667894107434
            ],
            [
              76.51807287133389,
              0.004685867745530451
            ],
            [
              76.5180724193383,
              0.004685108543084848
            ],
            [
              76.51807189560249,
              0.004684397598305349
            ],
            [
              76.51807130517034,
              0.0046837417579789105
            ],
            [
              76.51807065372802,
              0.004683147338206431
            ],
            [
              76.51806994754928,
              0.0046826200635752295
            ],
            [
              76.51806919343502,
              0.004682165012028148
            ],
            [
              76.51806839864777,
              0.004681786565960193
            ],
            [
              76.51806757084175,
              0.004681488370013683
            ],
            [
              76.51806671798919,
              0.004681273295978349
            ],
            [
              76.51806584830354,
              0.0046811434151344455
            ],
            [
              76.51806497016034,
              0.004681099978305197
            ],
            [
              76.51663151864862,
              0.004681090734670253
            ],
            [
              76.51663064050659,
              0.004681134160088201
            ],
            [
              76.51662977082101,
              0.004681264029458551
            ],
            [
              76.51662891796741,
              0.004681479092067976
            ],
            [
              76.51662809015924,
              0.004681777276745701
            ],
            [
              76.51662729536875,
              0.004682155711810031
            ],
            [
              76.51662654125019,
              0.0046826107527242295
            ],
            [
              76.51662583506615,
              0.004683138017195389
            ],
            [
              76.51662518361756,
              0.004683732427378333
            ],
            [
              76.51662459317824,
              0.004684388258778027
            ],
            [
              76.51662406943441,
              0.004685099195379612
            ],
            [
              76.51662361743006,
              0.004685858390475068
            ],
            [
              76.51662324151819,
              0.004686658532600757
            ],
            [
              76.51662294531906,
              0.004687491915950803
            ],
            [
              76.51662273168523,
              0.004688350514588217
            ],
            [
              76.51662260267409,
              0.00468922605973904
            ],
            [
              76.51662255952813,
              0.004690110119425147
            ]
          ]
        ]
      },
      "properties": {
        "municipal_building_id": "MUN-BLD-008",
        "structure_ref": "STR-008",
        "building_status": "registered",
        "building_use": "residential",
        "source_department": "Urban Local Body / Municipal Corporation",
        "source_authority": "Synthetic Meerut Nagar Nigam",
        "record_status": "synthetic"
      }
    },
    {
      "type": "Feature",
      "geometry": {
        "type": "Polygon",
        "coordinates": [
          [
            [
              76.52002701257453,
              0.004509742414053554
            ],
            [
              76.52002700375627,
              0.005772470289889088
            ],
            [
              76.52002704688987,
              0.005773354354341989
            ],
            [
              76.52002717588915,
              0.005774229905456935
            ],
            [
              76.52002738951177,
              0.0057750885111983626
            ],
            [
              76.52002768570044,
              0.005775921902723899
            ],
            [
              76.5200280616027,
              0.005776722054017817
            ],
            [
              76.52002851359839,
              0.005777481259185945
            ],
            [
              76.52002903733455,
              0.0057781922066676445
            ],
            [
              76.52002962776733,
              0.005778848049650109
            ],
            [
              76.52003027921053,
              0.00577944247200693
            ],
            [
              76.52003098539038,
              0.0057799697491258345
            ],
            [
              76.52003173950601,
              0.005780424803039838
            ],
            [
              76.52003253429486,
              0.005780803251330843
            ],
            [
              76.52003336210267,
              0.005781101449334725
            ],
            [
              76.5200342149572,
              0.005781316525241455
            ],
            [
              76.52003508464503,
              0.005781446407752201
            ],
            [
              76.52003596279056,
              0.005781489846027082
            ],
            [
              76.52155901225844,
              0.005781501966814192
            ],
            [
              76.52155989040648,
              0.005781458542425151
            ],
            [
              76.52156076009817,
              0.005781328673483788
            ],
            [
              76.52156161295787,
              0.005781113610698702
            ],
            [
              76.52156244077213,
              0.005780815425241796
            ],
            [
              76.52156323556858,
              0.005780436988801788
            ],
            [
              76.52156398969294,
              0.005779981945928268
            ],
            [
              76.52156469588256,
              0.005779454678932711
            ],
            [
              76.52156534733646,
              0.005778860265684431
            ],
            [
              76.52156593778078,
              0.005778204430707913
            ],
            [
              76.52156646152922,
              0.005777493490052531
            ],
            [
              76.52156691353778,
              0.005776734290465526
            ],
            [
              76.52156728945337,
              0.005775934143454089
            ],
            [
              76.52156758565575,
              0.005775100754871546
            ],
            [
              76.5215677992923,
              0.0057742421507057645
            ],
            [
              76.52156792830559,
              0.005773366599784499
            ],
            [
              76.52156797145315,
              0.005772482534142049
            ],
            [
              76.52156798026841,
              0.004509751979876169
            ],
            [
              76.5215679371332,
              0.0045088679136231855
            ],
            [
              76.52156780813213,
              0.0045079923608762965
            ],
            [
              76.52156759450757,
              0.0045071337536873824
            ],
            [
              76.52156729831684,
              0.004506300360913309
            ],
            [
              76.52156692241242,
              0.004505500208582313
            ],
            [
              76.52156647041446,
              0.004504741002598948
            ],
            [
              76.52156594667595,
              0.0045040300545320065
            ],
            [
              76.52156535624079,
              0.00450337421120011
            ],
            [
              76.5215647047952,
              0.004502779788733093
            ],
            [
              76.52156399861292,
              0.004502252511744225
            ],
            [
              76.52156324449491,
              0.004501797458199061
            ],
            [
              76.52156244970375,
              0.004501419010511846
            ],
            [
              76.52156162189367,
              0.004501120813340493
            ],
            [
              76.52156076903697,
              0.004500905738486526
            ],
            [
              76.5215598993471,
              0.004500775857238086
            ],
            [
              76.52155902119965,
              0.004500732420422299
            ],
            [
              76.52003597173479,
              0.004500722984739363
            ],
            [
              76.52003509358866,
              0.004500766410583305
            ],
            [
              76.52003422389903,
              0.004500896280782831
            ],
            [
              76.52003337104148,
              0.004501111344616622
            ],
            [
              76.5200325432295,
              0.0045014095309021205
            ],
            [
              76.52003174843537,
              0.004501787967942147
            ],
            [
              76.52003099431339,
              0.004502243011180931
            ],
            [
              76.52003028812616,
              0.004502770278303187
            ],
            [
              76.52002963667468,
              0.004503364691438197
            ],
            [
              76.52002904623275,
              0.004504020526062507
            ],
            [
              76.52002852248665,
              0.004504731466130197
            ],
            [
              76.52002807048036,
              0.004505490664899868
            ],
            [
              76.52002769456693,
              0.0045062908108724955
            ],
            [
              76.52002739836662,
              0.004507124198205159
            ],
            [
              76.520027184732,
              0.004507982800922511
            ],
            [
              76.52002705572049,
              0.0045088583502113
            ],
            [
              76.52002701257453,
              0.004509742414053554
            ]
          ]
        ]
      },
      "properties": {
        "municipal_building_id": "MUN-BLD-009",
        "structure_ref": "STR-009",
        "building_status": "registered",
        "building_use": "commercial",
        "source_department": "Urban Local Body / Municipal Corporation",
        "source_authority": "Synthetic Meerut Nagar Nigam",
        "record_status": "synthetic"
      }
    },
    {
      "type": "Feature",
      "geometry": {
        "type": "Polygon",
        "coordinates": [
          [
            [
              76.52352107079881,
              0.004690154663272035
            ],
            [
              76.52352106240141,
              0.005862693328993808
            ],
            [
              76.52352110553514,
              0.005863577397702848
            ],
            [
              76.52352123453493,
              0.005864452953043116
            ],
            [
              76.52352144815849,
              0.005865311562938362
            ],
            [
              76.52352174434849,
              0.005866144958506205
            ],
            [
              76.52352212025245,
              0.005866945113691989
            ],
            [
              76.52352257225024,
              0.005867704322564065
            ],
            [
              76.52352309598884,
              0.005868415273526118
            ],
            [
              76.52352368642437,
              0.005869071119731828
            ],
            [
              76.52352433787063,
              0.005869665545023739
            ],
            [
              76.52352504405381,
              0.005870192824761318
            ],
            [
              76.52352579817301,
              0.005870647880952359
            ],
            [
              76.52352659296564,
              0.005871026331156836
            ],
            [
              76.5235274207774,
              0.005871324530692199
            ],
            [
              76.52352827363602,
              0.005871539607733662
            ],
            [
              76.523529143328,
              0.005871669490971472
            ],
            [
              76.52353002147774,
              0.005871712929558745
            ],
            [
              76.52505307826826,
              0.005871725229913492
            ],
            [
              76.52505395642052,
              0.0058716818054191985
            ],
            [
              76.5250548261164,
              0.005871551935956055
            ],
            [
              76.52505567898025,
              0.005871336872237685
            ],
            [
              76.52505650679849,
              0.005871038685444988
            ],
            [
              76.52505730159882,
              0.005870660247279537
            ],
            [
              76.52505805572686,
              0.0058702052023075465
            ],
            [
              76.52505876191994,
              0.0058696779328606995
            ],
            [
              76.52505941337704,
              0.005869083516831912
            ],
            [
              76.52506000382427,
              0.00586842767877245
            ],
            [
              76.5250605275753,
              0.005867716734761383
            ],
            [
              76.52506097958613,
              0.00586695753157826
            ],
            [
              76.52506135550364,
              0.005866157380764912
            ],
            [
              76.52506165170752,
              0.005865323988211277
            ],
            [
              76.52506186534521,
              0.005864465379943462
            ],
            [
              76.5250619943592,
              0.005863589824828733
            ],
            [
              76.52506203750707,
              0.005862705754941768
            ],
            [
              76.5250620459016,
              0.00469016460403039
            ],
            [
              76.52506200276639,
              0.004689280533517314
            ],
            [
              76.52506187376491,
              0.004688404976530374
            ],
            [
              76.52506166013953,
              0.0046875463651622745
            ],
            [
              76.52506136394757,
              0.004686712968310136
            ],
            [
              76.52506098804152,
              0.004685912812041468
            ],
            [
              76.52506053604156,
              0.004685153602298745
            ],
            [
              76.52506001230073,
              0.004684442650686967
            ],
            [
              76.52505942186289,
              0.004683786804058884
            ],
            [
              76.52505877041429,
              0.004683192378576087
            ],
            [
              76.52505806422877,
              0.004682665098880885
            ],
            [
              76.52505731010724,
              0.004682210042964893
            ],
            [
              76.52505651531234,
              0.004681831593265191
            ],
            [
              76.52505568749835,
              0.004681533394459074
            ],
            [
              76.52505483463759,
              0.00468131831836381
            ],
            [
              76.52505396494358,
              0.004681188436279497
            ],
            [
              76.52505308679193,
              0.004681144999041302
            ],
            [
              76.5235300300043,
              0.0046811351927677144
            ],
            [
              76.52352915185394,
              0.004681178618606788
            ],
            [
              76.5235282821601,
              0.004681308489219172
            ],
            [
              76.5235274292984,
              0.004681523553879573
            ],
            [
              76.52352660148236,
              0.004681821741397472
            ],
            [
              76.52352580668432,
              0.004682200180063823
            ],
            [
              76.52352505255861,
              0.004682655225307191
            ],
            [
              76.52352434636786,
              0.004683182494792985
            ],
            [
              76.52352369491311,
              0.004683776910627729
            ],
            [
              76.52352310446817,
              0.004684432748261967
            ],
            [
              76.52352258071939,
              0.004685143691620789
            ],
            [
              76.52352212871074,
              0.004685902893931103
            ],
            [
              76.52352175279532,
              0.004686703043659785
            ],
            [
              76.52352145659337,
              0.004687536434927741
            ],
            [
              76.52352124295753,
              0.004688395041721728
            ],
            [
              76.52352111394518,
              0.004689270595189232
            ],
            [
              76.52352107079881,
              0.004690154663272035
            ]
          ]
        ]
      },
      "properties": {
        "municipal_building_id": "MUN-BLD-010",
        "structure_ref": "STR-010",
        "building_status": "registered",
        "building_use": "residential",
        "source_department": "Urban Local Body / Municipal Corporation",
        "source_authority": "Synthetic Meerut Nagar Nigam",
        "record_status": "synthetic"
      }
    }
  ]
}